[
  {
    "iso6391": "ar",
    "iso6393": "ara",
    "hreflang": "ar",
    "ogLocale": "ar_AR",
    "name": "Arabic",
    "nativeName": "العربية",
    "region": null,
    "rtl": true,
    "enabled": true,
    "priority": 1
  },
  {
    "iso6391": "de",
    "iso6393": "deu",
    "hreflang": "de-DE",
    "ogLocale": "de_DE",
    "name": "German",
    "nativeName": "Deutsch",
    "region": "DE",
    "rtl": false,
    "enabled": true,
    "priority": 2
  },
  {
    "iso6391": "en",
    "iso6393": "eng",
    "hreflang": "en",
    "ogLocale": "en_US",
    "name": "English",
    "nativeName": "English",
    "region": "US",
    "rtl": false,
    "enabled": true,
    "priority": 3
  },
  {
    "iso6391": "es",
    "iso6393": "spa",
    "hreflang": "es-ES",
    "ogLocale": "es_ES",
    "name": "Spanish",
    "nativeName": "Español",
    "region": "ES",
    "rtl": false,
    "enabled": true,
    "priority": 4
  },
  {
    "iso6391": "fa",
    "iso6393": "fas",
    "hreflang": "fa-IR",
    "ogLocale": "fa_IR",
    "name": "Persian",
    "nativeName": "فارسی",
    "region": "IR",
    "rtl": true,
    "enabled": true,
    "priority": 5
  },
  {
    "iso6391": "fil",
    "iso6393": "fil",
    "hreflang": "fil-PH",
    "ogLocale": "fil_PH",
    "name": "Filipino",
    "nativeName": "Filipino",
    "region": "PH",
    "rtl": false,
    "enabled": true,
    "priority": 6
  },
  {
    "iso6391": "fr",
    "iso6393": "fra",
    "hreflang": "fr-FR",
    "ogLocale": "fr_FR",
    "name": "French",
    "nativeName": "Français",
    "region": "FR",
    "rtl": false,
    "enabled": true,
    "priority": 7
  },
  {
    "iso6391": "hi",
    "iso6393": "hin",
    "hreflang": "hi-IN",
    "ogLocale": "hi_IN",
    "name": "Hindi",
    "nativeName": "हिन्दी",
    "region": "IN",
    "rtl": false,
    "enabled": true,
    "priority": 8
  },
  {
    "iso6391": "id",
    "iso6393": "ind",
    "hreflang": "id-ID",
    "ogLocale": "id_ID",
    "name": "Indonesian",
    "nativeName": "Bahasa Indonesia",
    "region": "ID",
    "rtl": false,
    "enabled": true,
    "priority": 9
  },
  {
    "iso6391": "ja",
    "iso6393": "jpn",
    "hreflang": "ja-JP",
    "ogLocale": "ja_JP",
    "name": "Japanese",
    "nativeName": "日本語",
    "region": "JP",
    "rtl": false,
    "enabled": true,
    "priority": 10
  },
  {
    "iso6391": "ko",
    "iso6393": "kor",
    "hreflang": "ko-KR",
    "ogLocale": "ko_KR",
    "name": "Korean",
    "nativeName": "한국어",
    "region": "KR",
    "rtl": false,
    "enabled": true,
    "priority": 11
  },
  {
    "iso6391": "ms",
    "iso6393": "msa",
    "hreflang": "ms-MY",
    "ogLocale": "ms_MY",
    "name": "Malay",
    "nativeName": "Bahasa Melayu",
    "region": "MY",
    "rtl": false,
    "enabled": true,
    "priority": 12
  },
  {
    "iso6391": "pl",
    "iso6393": "pol",
    "hreflang": "pl-PL",
    "ogLocale": "pl_PL",
    "name": "Polish",
    "nativeName": "Polski",
    "region": "PL",
    "rtl": false,
    "enabled": true,
    "priority": 13
  },
  {
    "iso6391": "pt",
    "iso6393": "por",
    "hreflang": "pt-BR",
    "ogLocale": "pt_BR",
    "name": "Portuguese",
    "nativeName": "Português",
    "region": "BR",
    "rtl": false,
    "enabled": true,
    "priority": 14
  },
  {
    "iso6391": "ro",
    "iso6393": "ron",
    "hreflang": "ro-RO",
    "ogLocale": "ro_RO",
    "name": "Romanian",
    "nativeName": "Română",
    "region": "RO",
    "rtl": false,
    "enabled": true,
    "priority": 15
  },
  {
    "iso6391": "ru",
    "iso6393": "rus",
    "hreflang": "ru-RU",
    "ogLocale": "ru_RU",
    "name": "Russian",
    "nativeName": "Русский",
    "region": "RU",
    "rtl": false,
    "enabled": true,
    "priority": 16
  },
  {
    "iso6391": "ta",
    "iso6393": "tam",
    "hreflang": "ta-IN",
    "ogLocale": "ta_IN",
    "name": "Tamil",
    "nativeName": "தமிழ்",
    "region": "IN",
    "rtl": false,
    "enabled": true,
    "priority": 17
  },
  {
    "iso6391": "th",
    "iso6393": "tha",
    "hreflang": "th-TH",
    "ogLocale": "th_TH",
    "name": "Thai",
    "nativeName": "ไทย",
    "region": "TH",
    "rtl": false,
    "enabled": true,
    "priority": 18
  },
  {
    "iso6391": "vi",
    "iso6393": "vie",
    "hreflang": "vi-VN",
    "ogLocale": "vi_VN",
    "name": "Vietnamese",
    "nativeName": "Tiếng Việt",
    "region": "VN",
    "rtl": false,
    "enabled": true,
    "priority": 19
  },
  {
    "iso6391": "zh-cn",
    "iso6393": "zho",
    "hreflang": "zh-CN",
    "ogLocale": "zh_CN",
    "name": "Chinese (Simplified)",
    "nativeName": "简体中文",
    "region": "CN",
    "rtl": false,
    "enabled": true,
    "priority": 20
  },
  {
    "iso6391": "zh-tw",
    "iso6393": "zho",
    "hreflang": "zh-TW",
    "ogLocale": "zh_TW",
    "name": "Chinese (Traditional)",
    "nativeName": "繁體中文",
    "region": "TW",
    "rtl": false,
    "enabled": true,
    "priority": 21
  }
]
